OBJECT_NAME,OBJECT_ID,EPOCH,MEAN_MOTION,ECCENTRICITY,INCLINATION,RA_OF_ASC_NODE,ARG_OF_PERICENTER,MEAN_ANOMALY,EPHEMERIS_TYPE,CLASSIFICATION_TYPE,NORAD_CAT_ID,ELEMENT_SET_NO,REV_AT_EPOCH,BSTAR,MEAN_MOTION_DOT,MEAN_MOTION_DDOT
SITRO-AIS 6 (CHIRKIN),2023-091AC,2026-07-08T13:18:40.333536,15.26354215,.00118582,97.5056,252.6671,38.9641,321.2449,0,U,57192,999,16754,.25675885E-3,.6611E-4,0
SITRO-AIS 8 (ANOKHIN),2023-091AD,2026-07-08T13:41:15.014688,15.32737358,.00101928,97.5045,255.3557,31.3584,328.8263,0,U,57193,999,16772,.30286306E-3,.9511E-4,0
SITRO-AIS 7 (FARTUSHNIY),2023-091AE,2026-07-08T13:29:35.484864,15.26031640,.0011817,97.5053,252.4885,40.0850,320.1258,0,U,57194,999,16753,.24969575E-3,.6364E-4,0
AVION KALUGA 650,2023-091AF,2026-07-08T13:13:14.694528,15.20587230,.00110579,97.5078,249.0422,44.0403,316.1711,0,U,57195,999,16727,.16776938E-3,.361E-4,0
HORS 2,2023-091AG,2026-07-08T12:29:22.339680,15.32448447,.00075492,97.5077,256.8471,19.5105,340.6425,0,U,57196,999,16779,.29902825E-3,.9298E-4,0
A-SEANSAT-PG1,2023-091AH,2026-07-08T13:20:41.129376,15.37724256,.00063447,97.5069,259.6030,15.0298,345.1134,0,U,57197,999,16799,.36478451E-3,.13446E-3,0
SITRO-AIS 10 (BURDAEV),2023-091AK,2026-07-08T13:48:34.172928,15.39450559,.00054831,97.5069,260.6396,8.2969,351.8366,0,U,57199,999,16805,.37475723E-3,.14617E-3,0
SITRO-AIS 9 (SHCHUKIN),2023-091AM,2026-07-08T13:02:56.531904,15.38940261,.0005771,97.5067,260.3202,8.4150,351.7190,0,U,57201,999,16803,.39154583E-3,.15024E-3,0
UTMN 2 (RS27S),2023-091AP,2026-07-08T13:05:30.850080,15.32592548,.00074527,97.5077,257.0687,14.6933,345.4524,0,U,57203,999,16781,.29080365E-3,.9081E-4,0
SITRO-AIS 12 (SMIRENNIY),2023-091AQ,2026-07-08T12:43:35.102496,15.39231201,.00052756,97.5080,260.7869,2.2859,357.8410,0,U,57204,999,16805,.35584659E-3,.13773E-3,0
SITRO-AIS 11 (SHEFFER),2023-091AU,2026-07-08T12:54:17.102880,15.39673713,.00051813,97.5078,261.0548,1.8354,358.2910,0,U,57208,999,16807,.38063143E-3,.14956E-3,0
H2SAT (HEINRICH HERTZ),2023-093A,2026-07-08T06:51:32.351040,1.00269381,.00007286,0.0145,102.2035,22.7495,264.8846,0,U,57213,999,1112,0,.17E-6,0
KUZGTU 1 (RS47S),2023-091AV,2026-07-08T13:11:39.564672,15.30369152,.00107835,97.5053,254.2528,29.5944,330.5904,0,U,57217,999,16764,.2872104E-3,.8373E-4,0
QIANKUN-1,2023-103B,2026-07-07T15:34:51.245472,16.07717346,.00365203,96.1465,232.0567,142.4338,217.9510,0,U,57422,999,17058,.17933907E-3,.157748E-2,.12853525E-4
FENGYUN 3F,2023-111A,2026-07-08T14:34:07.805856,14.19942773,.00014021,98.6828,259.2159,79.3174,280.8161,0,U,57490,999,15190,.29146018E-4,.19E-6,0
HJ-2F,2023-116A,2026-07-08T13:08:04.431264,15.22632405,.00072999,97.3849,194.3975,340.1260,19.9691,0,U,57519,999,16200,.21374751E-3,.4905E-4,0
XRISM,2023-137A,2026-07-08T12:08:14.995968,15.12641157,.00078078,31.0012,221.4908,179.3343,180.7307,0,U,57800,999,15609,.12454899E-3,.233E-4,0
METEOR-M2 4,2024-039A,2026-07-08T13:37:02.832096,14.22431663,.00081825,98.7021,148.5978,105.1749,255.0334,0,U,59051,999,12230,.14659524E-4,-.11E-6,0
GRBBETA,2024-128C,2026-07-08T10:58:03.182592,15.06777502,.00378601,61.9890,141.6327,139.2151,221.1788,0,U,60237,999,10947,.15584721E-3,.2146E-4,0
TRANSPORTER-11 OBJECT A,2024-149A,2026-07-08T04:05:42.115776,15.33261473,.00045457,97.3722,269.0390,133.9778,226.1840,0,U,60468,999,10527,.1767358E-3,.5602E-4,0
WARATAH SEED-1,2024-149B,2026-07-08T11:25:44.310720,15.36499720,.00029594,97.3681,270.0776,133.0649,227.0843,0,U,60469,999,10538,.24333635E-3,.8587E-4,0
PHISAT 2,2024-149C,2026-07-08T11:34:22.525824,15.31356332,.00028559,97.3749,268.5832,134.8377,225.3097,0,U,60470,999,10525,.14293638E-3,.4251E-4,0
LEMUR-2-TOMATOKECHUP,2024-149D,2026-07-07T18:07:55.111008,15.36476705,.00029644,97.3789,270.8599,136.0140,224.1341,0,U,60471,999,10532,.20696303E-3,.7285E-4,0
CONNECTA IOT-1,2024-149E,2026-07-08T10:34:03.149472,15.23707554,.00022431,97.3748,265.3735,155.7690,204.3653,0,U,60472,999,10503,.11003708E-3,.2572E-4,0
LOPEN,2024-149F,2026-07-08T04:23:48.870528,15.40318087,.00024122,97.3770,272.7233,146.0794,214.0607,0,U,60473,999,10549,.25186468E-3,.10072E-3,0
ROCK,2024-149G,2026-07-08T11:52:22.790208,15.40315191,.00027219,97.3766,273.0519,144.8045,215.3382,0,U,60474,999,10554,.27455622E-3,.10987E-3,0
CONNECTA IOT-3,2024-149H,2026-07-08T11:04:34.924512,15.23721014,.00033246,97.3725,265.1414,160.6447,199.4918,0,U,60475,999,10504,.1052506E-3,.2458E-4,0
QUBE,2024-149J,2026-07-07T19:09:43.607232,15.48247134,.00032246,97.3766,275.6429,145.7335,214.4124,0,U,60476,999,10565,.37115421E-3,.19495E-3,0
WREN-1,2024-149L,2026-07-07T18:30:09.413856,15.42410973,.00048849,97.3758,273.1107,173.4277,186.7036,0,U,60478,999,10549,.35341205E-3,.15201E-3,0
