SITRO-AIS 6 (CHIRKIN)   
1 57192U 23091AC  26189.55463349  .00006611  00000+0  25676-3 0  9996
2 57192  97.5056 252.6671 0011858  38.9641 321.2449 15.26354215167543
SITRO-AIS 8 (ANOKHIN)   
1 57193U 23091AD  26189.57031267  .00009511  00000+0  30286-3 0  9994
2 57193  97.5045 255.3557 0010192  31.3584 328.8263 15.32737358167725
SITRO-AIS 7 (FARTUSHNIY)
1 57194U 23091AE  26189.56221626  .00006364  00000+0  24970-3 0  9990
2 57194  97.5053 252.4885 0011817  40.0850 320.1258 15.26031640167537
AVION KALUGA 650        
1 57195U 23091AF  26189.55086452  .00003610  00000+0  16777-3 0  9993
2 57195  97.5078 249.0422 0011057  44.0403 316.1711 15.20587230167273
HORS 2                  
1 57196U 23091AG  26189.52039745  .00009298  00000+0  29903-3 0  9997
2 57196  97.5077 256.8471 0007549  19.5105 340.6425 15.32448447167790
A-SEANSAT-PG1           
1 57197U 23091AH  26189.55603159  .00013446  00000+0  36478-3 0  9992
2 57197  97.5069 259.6030 0006344  15.0298 345.1134 15.37724256167999
SITRO-AIS 10 (BURDAEV)  
1 57199U 23091AK  26189.57539552  .00014617  00000+0  37476-3 0  9991
2 57199  97.5069 260.6396 0005483   8.2969 351.8366 15.39450559168053
SITRO-AIS 9 (SHCHUKIN)  
1 57201U 23091AM  26189.54370986  .00015024  00000+0  39155-3 0  9995
2 57201  97.5067 260.3202 0005771   8.4150 351.7190 15.38940261168037
UTMN 2 (RS27S)          
1 57203U 23091AP  26189.54549595  .00009081  00000+0  29080-3 0  9993
2 57203  97.5077 257.0687 0007452  14.6933 345.4524 15.32592548167817
SITRO-AIS 12 (SMIRENNIY)
1 57204U 23091AQ  26189.53026739  .00013773  00000+0  35585-3 0  9993
2 57204  97.5080 260.7869 0005275   2.2859 357.8410 15.39231201168057
SITRO-AIS 11 (SHEFFER)  
1 57208U 23091AU  26189.53769795  .00014956  00000+0  38063-3 0  9991
2 57208  97.5078 261.0548 0005181   1.8354 358.2910 15.39673713168077
H2SAT (HEINRICH HERTZ)  
1 57213U 23093A   26189.28579110  .00000017  00000+0  00000+0 0  9990
2 57213   0.0145 102.2035 0000728  22.7495 264.8846  1.00269381 11122
KUZGTU 1 (RS47S)        
1 57217U 23091AV  26189.54976348  .00008373  00000+0  28721-3 0  9992
2 57217  97.5053 254.2528 0010783  29.5944 330.5904 15.30369152167646
QIANKUN-1               
1 57422U 23103B   26188.64920423  .00157748  12854-4  17934-3 0  9997
2 57422  96.1465 232.0567 0036520 142.4338 217.9510 16.07717346170587
FENGYUN 3F              
1 57490U 23111A   26189.60703479  .00000019  00000+0  29146-4 0  9990
2 57490  98.6828 259.2159 0001402  79.3174 280.8161 14.19942773151908
HJ-2F                   
1 57519U 23116A   26189.54727351  .00004905  00000+0  21375-3 0  9998
2 57519  97.3849 194.3975 0007299 340.1260  19.9691 15.22632405162004
XRISM                   
1 57800U 23137A   26189.50572912  .00002330  00000+0  12455-3 0  9990
2 57800  31.0012 221.4908 0007807 179.3343 180.7307 15.12641157156097
METEOR-M2 4             
1 59051U 24039A   26189.56739389 -.00000011  00000+0  14660-4 0  9997
2 59051  98.7021 148.5978 0008182 105.1749 255.0334 14.22431663122309
GRBBETA                 
1 60237U 24128C   26189.45698128  .00002146  00000+0  15585-3 0  9993
2 60237  61.9890 141.6327 0037860 139.2151 221.1788 15.06777502109473
TRANSPORTER-11 OBJECT A 
1 60468U 24149A   26189.17062634  .00005602  00000+0  17674-3 0  9999
2 60468  97.3722 269.0390 0004545 133.9778 226.1840 15.33261473105274
WARATAH SEED-1          
1 60469U 24149B   26189.47620730  .00008587  00000+0  24334-3 0  9996
2 60469  97.3681 270.0776 0002959 133.0649 227.0843 15.36499720105380
PHISAT 2                
1 60470U 24149C   26189.48220516  .00004251  00000+0  14294-3 0  9995
2 60470  97.3749 268.5832 0002855 134.8377 225.3097 15.31356332105258
LEMUR-2-TOMATOKECHUP    
1 60471U 24149D   26188.75549897  .00007285  00000+0  20696-3 0  9994
2 60471  97.3789 270.8599 0002964 136.0140 224.1341 15.36476705105321
CONNECTA IOT-1          
1 60472U 24149E   26189.44031423  .00002572  00000+0  11004-3 0  9990
2 60472  97.3748 265.3735 0002243 155.7690 204.3653 15.23707554105035
LOPEN                   
1 60473U 24149F   26189.18320452  .00010072  00000+0  25186-3 0  9995
2 60473  97.3770 272.7233 0002412 146.0794 214.0607 15.40318087105497
ROCK                    
1 60474U 24149G   26189.49470822  .00010987  00000+0  27456-3 0  9994
2 60474  97.3766 273.0519 0002721 144.8045 215.3382 15.40315191105545
CONNECTA IOT-3          
1 60475U 24149H   26189.46151533  .00002458  00000+0  10525-3 0  9990
2 60475  97.3725 265.1414 0003324 160.6447 199.4918 15.23721014105047
QUBE                    
1 60476U 24149J   26188.79842138  .00019495  00000+0  37115-3 0  9997
2 60476  97.3766 275.6429 0003224 145.7335 214.4124 15.48247134105651
WREN-1                  
1 60478U 24149L   26188.77094229  .00015201  00000+0  35341-3 0  9997
2 60478  97.3758 273.1107 0004884 173.4277 186.7036 15.42410973105498
